STARLINK-37150          
1 68315U 26057X   26087.83335648 -.01160866  45195-3 -18334-2 0  9994
2 68315  97.2786 210.9705 0001205  87.5524 182.8305 16.03920378  2331
